{
  "type": "FeatureCollection",
  "features": [
    {
      "type": "Feature",
      "properties": {
        "norad_id": 31664,
        "name": "FENGYUN 1C DEB",
        "group": "fengyun-1c-debris",
        "lat": -40.128116143092456,
        "lon": -18.0280990622385,
        "alt_km": 943.0142608865754,
        "timestamp": "2025-12-08T21:31:04.951251+00:00",
        "meta_object_name": "FENGYUN 1C DEB",
        "meta_object_id": "1999-025CBW",
        "meta_epoch": "2025-12-07T16:46:06.708000",
        "meta_mean_motion": 14.1028697,
        "meta_eccentricity": 0.01246191,
        "meta_inclination": 98.7511,
        "meta_ra_of_asc_node": 333.3459,
        "meta_arg_of_pericenter": 172.3549,
        "meta_mean_anomaly": 187.9561,
        "meta_ephemeris_type": 0,
        "meta_classification_type": "U",
        "meta_norad_cat_id": 31664,
        "meta_element_set_no": 999,
        "meta_rev_at_epoch": 95930,
        "meta_bstar": 0.00058142999,
        "meta_mean_motion_dot": 1.066e-05,
        "meta_mean_motion_ddot": 0,
        "tle_line1": "1 31664U 99025CBW 25341.69868875  .00001066  00000+0  58143-3 0  9993",
        "tle_line2": "2 31664  98.7511 333.3459 0124619 172.3549 187.9561 14.10286970959308"
      },
      "geometry": {
        "type": "Point",
        "coordinates": [
          -18.0280990622385,
          -40.128116143092456
        ]
      }
    },
    {
      "type": "Feature",
      "properties": {
        "norad_id": 31665,
        "name": "FENGYUN 1C DEB",
        "group": "fengyun-1c-debris",
        "lat": -22.153064651594,
        "lon": 29.706434242816233,
        "alt_km": 1057.7894844928642,
        "timestamp": "2025-12-08T21:31:04.951261+00:00",
        "meta_object_name": "FENGYUN 1C DEB",
        "meta_object_id": "1999-025CBX",
        "meta_epoch": "2025-12-07T14:24:57.671136",
        "meta_mean_motion": 13.84797658,
        "meta_eccentricity": 0.01894703,
        "meta_inclination": 98.4506,
        "meta_ra_of_asc_node": 25.0684,
        "meta_arg_of_pericenter": 201.0018,
        "meta_mean_anomaly": 158.3283,
        "meta_ephemeris_type": 0,
        "meta_classification_type": "U",
        "meta_norad_cat_id": 31665,
        "meta_element_set_no": 999,
        "meta_rev_at_epoch": 93120,
        "meta_bstar": 0.0019330831,
        "meta_mean_motion_dot": 2.467e-05,
        "meta_mean_motion_ddot": 0,
        "tle_line1": "1 31665U 99025CBX 25341.60066749  .00002467  00000+0  19331-2 0  9996",
        "tle_line2": "2 31665  98.4506  25.0684 0189470 201.0018 158.3283 13.84797658931204"
      },
      "geometry": {
        "type": "Point",
        "coordinates": [
          29.706434242816233,
          -22.153064651594
        ]
      }
    },
    {
      "type": "Feature",
      "properties": {
        "norad_id": 31666,
        "name": "FENGYUN 1C DEB",
        "group": "fengyun-1c-debris",
        "lat": 61.337665860748096,
        "lon": -32.576014965221695,
        "alt_km": 600.0983300214202,
        "timestamp": "2025-12-08T21:31:04.951271+00:00",
        "meta_object_name": "FENGYUN 1C DEB",
        "meta_object_id": "1999-025CBY",
        "meta_epoch": "2025-12-06T22:02:31.599456",
        "meta_mean_motion": 14.83277188,
        "meta_eccentricity": 0.00254017,
        "meta_inclination": 98.6531,
        "meta_ra_of_asc_node": 129.1065,
        "meta_arg_of_pericenter": 170.033,
        "meta_mean_anomaly": 190.139,
        "meta_ephemeris_type": 0,
        "meta_classification_type": "U",
        "meta_norad_cat_id": 31666,
        "meta_element_set_no": 999,
        "meta_rev_at_epoch": 97185,
        "meta_bstar": 0.0063860544,
        "meta_mean_motion_dot": 0.00052864,
        "meta_mean_motion_ddot": 0,
        "tle_line1": "1 31666U 99025CBY 25340.91842129  .00052864  00000+0  63861-2 0  9997",
        "tle_line2": "2 31666  98.6531 129.1065 0025401 170.0330 190.1390 14.83277188971858"
      },
      "geometry": {
        "type": "Point",
        "coordinates": [
          -32.576014965221695,
          61.337665860748096
        ]
      }
    },
    {
      "type": "Feature",
      "properties": {
        "norad_id": 31667,
        "name": "FENGYUN 1C DEB",
        "group": "fengyun-1c-debris",
        "lat": -21.675756108173236,
        "lon": -161.58544555559004,
        "alt_km": 837.1993752384096,
        "timestamp": "2025-12-08T21:31:04.951281+00:00",
        "meta_object_name": "FENGYUN 1C DEB",
        "meta_object_id": "1999-025CBZ",
        "meta_epoch": "2025-12-03T10:02:22.672608",
        "meta_mean_motion": 14.2348358,
        "meta_eccentricity": 0.00516043,
        "meta_inclination": 99.0856,
        "meta_ra_of_asc_node": 189.1139,
        "meta_arg_of_pericenter": 113.7693,
        "meta_mean_anomaly": 246.8908,
        "meta_ephemeris_type": 0,
        "meta_classification_type": "U",
        "meta_norad_cat_id": 31667,
        "meta_element_set_no": 999,
        "meta_rev_at_epoch": 55860,
        "meta_bstar": 0.0003571101,
        "meta_mean_motion_dot": 7.76e-06,
        "meta_mean_motion_ddot": 0,
        "tle_line1": "1 31667U 99025CBZ 25337.41831797  .00000776  00000+0  35711-3 0  9997",
        "tle_line2": "2 31667  99.0856 189.1139 0051604 113.7693 246.8908 14.23483580558609"
      },
      "geometry": {
        "type": "Point",
        "coordinates": [
          -161.58544555559004,
          -21.675756108173236
        ]
      }
    },
    {
      "type": "Feature",
      "properties": {
        "norad_id": 31672,
        "name": "FENGYUN 1C DEB",
        "group": "fengyun-1c-debris",
        "lat": 36.04456017969525,
        "lon": 163.65890158460687,
        "alt_km": 664.1457427069017,
        "timestamp": "2025-12-08T21:31:04.951291+00:00",
        "meta_object_name": "FENGYUN 1C DEB",
        "meta_object_id": "1999-025CCE",
        "meta_epoch": "2025-12-07T18:52:15.548448",
        "meta_mean_motion": 14.50829598,
        "meta_eccentricity": 0.01080863,
        "meta_inclination": 98.9568,
        "meta_ra_of_asc_node": 169.0682,
        "meta_arg_of_pericenter": 356.6298,
        "meta_mean_anomaly": 3.4154,
        "meta_ephemeris_type": 0,
        "meta_classification_type": "U",
        "meta_norad_cat_id": 31672,
        "meta_element_set_no": 999,
        "meta_rev_at_epoch": 64799,
        "meta_bstar": 0.0026230163,
        "meta_mean_motion_dot": 0.00011109,
        "meta_mean_motion_ddot": 0,
        "tle_line1": "1 31672U 99025CCE 25341.78629107  .00011109  00000+0  26230-2 0  9995",
        "tle_line2": "2 31672  98.9568 169.0682 0108086 356.6298   3.4154 14.50829598647993"
      },
      "geometry": {
        "type": "Point",
        "coordinates": [
          163.65890158460687,
          36.04456017969525
        ]
      }
    },
    {
      "type": "Feature",
      "properties": {
        "norad_id": 31673,
        "name": "FENGYUN 1C DEB",
        "group": "fengyun-1c-debris",
        "lat": -70.27703374255245,
        "lon": -155.4994026378222,
        "alt_km": 852.7802453423938,
        "timestamp": "2025-12-08T21:31:04.951301+00:00",
        "meta_object_name": "FENGYUN 1C DEB",
        "meta_object_id": "1999-025CCF",
        "meta_epoch": "2025-12-08T06:45:52.085376",
        "meta_mean_motion": 14.31934796,
        "meta_eccentricity": 0.01258202,
        "meta_inclination": 99.3746,
        "meta_ra_of_asc_node": 176.3979,
        "meta_arg_of_pericenter": 61.7337,
        "meta_mean_anomaly": 299.6476,
        "meta_ephemeris_type": 0,
        "meta_classification_type": "U",
        "meta_norad_cat_id": 31673,
        "meta_element_set_no": 999,
        "meta_rev_at_epoch": 64827,
        "meta_bstar": 0.00037901673,
        "meta_mean_motion_dot": 1.056e-05,
        "meta_mean_motion_ddot": 0,
        "tle_line1": "1 31673U 99025CCF 25342.28185284  .00001056  00000+0  37902-3 0  9994",
        "tle_line2": "2 31673  99.3746 176.3979 0125820  61.7337 299.6476 14.31934796648274"
      },
      "geometry": {
        "type": "Point",
        "coordinates": [
          -155.4994026378222,
          -70.27703374255245
        ]
      }
    },
    {
      "type": "Feature",
      "properties": {
        "norad_id": 31674,
        "name": "FENGYUN 1C DEB",
        "group": "fengyun-1c-debris",
        "lat": 37.41391727996334,
        "lon": -154.1260965206453,
        "alt_km": 732.7497317235893,
        "timestamp": "2025-12-08T21:31:04.951312+00:00",
        "meta_object_name": "FENGYUN 1C DEB",
        "meta_object_id": "1999-025CCG",
        "meta_epoch": "2025-12-07T20:03:09.240768",
        "meta_mean_motion": 14.51721718,
        "meta_eccentricity": 0.00242921,
        "meta_inclination": 98.9262,
        "meta_ra_of_asc_node": 17.8424,
        "meta_arg_of_pericenter": 299.9306,
        "meta_mean_anomaly": 59.9475,
        "meta_ephemeris_type": 0,
        "meta_classification_type": "U",
        "meta_norad_cat_id": 31674,
        "meta_element_set_no": 999,
        "meta_rev_at_epoch": 64543,
        "meta_bstar": 0.0048161293,
        "meta_mean_motion_dot": 0.00019418,
        "meta_mean_motion_ddot": 0,
        "tle_line1": "1 31674U 99025CCG 25341.83552362  .00019418  00000+0  48161-2 0  9999",
        "tle_line2": "2 31674  98.9262  17.8424 0024292 299.9306  59.9475 14.51721718645430"
      },
      "geometry": {
        "type": "Point",
        "coordinates": [
          -154.1260965206453,
          37.41391727996334
        ]
      }
    }
  ]
}